COSMOS 2433 (720)       
1 32275C 07052A   23138.99979167  .00000000  00000-0  00000-0 0  1382
2 32275  66.0451 353.5307 0000302 260.6242  20.2414  2.13104211    15
COSMOS 2432 (719)       
1 32276C 07052B   23138.99979167  .00000000  00000-0  00000-0 0  1383
2 32276  66.0593 353.6375 0009746 341.2049 247.0483  2.13103513    10
COSMOS 2434 (721)       
1 32393C 07065A   23138.99979167  .00000000  00000-0  00000-0 0  1387
2 32393  64.3416 229.9907 0002021  94.3131  77.3326  2.13103021    12
COSMOS 2436 (723)       
1 32395C 07065C   23138.99979167  .00000000  00000-0  00000-0 0  1389
2 32395  64.3502 230.0512 0015434 358.9529 308.2972  2.13102929    16
COSMOS 2456 (730)       
1 36111C 09070A   23138.99979167 -.00000000  00000-0  00000-0 0  1388
2 36111  64.4548 109.5273 0006072 306.1268  26.2811  2.13099288    16
COSMOS 2457 (733)       
1 36112C 09070B   23138.99979167 -.00000000  00000-0  00000-0 0  1389
2 36112  64.4386 109.3951 0003431 197.1322 265.2164  2.13101442    15
COSMOS 2460 (732)       
1 36402C 10007C   23138.99979167  .00000000  00000-0  00000-0 0  1382
2 36402  65.9101 352.2643 0002676  58.8080  30.7002  2.13106355    13
COSMOS 2476 (744)       
1 37867C 11064A   23138.99979167 -.00000000  00000-0  00000-0 0  1383
2 37867  64.7370 111.0131 0023489 241.6194 359.1947  2.13101994    10
COSMOS 2477 (745)       
1 37868C 11064B   23138.99979167 -.00000000  00000-0  00000-0 0  1384
2 37868  64.7444 111.0816 0020851 243.0279 175.7099  2.13101713    12
COSMOS 2475 (743)       
1 37869C 11064C   23138.99979167 -.00000000  00000-0  00000-0 0  1385
2 37869  64.7516 111.0928 0025769 257.5990 119.4696  2.13102041    13
COSMOS 2485 (747)       
1 39155C 13019A   23138.99979167 -.00000000  00000-0  00000-0 0  1387
2 39155  64.8982 111.5137 0023763 237.6012  47.5726  2.13102068    18
COSMOS 2492 (754)       
1 39620C 14012A   23138.99979167  .00000000  00000-0  00000-0 0  1387
2 39620  65.7944 351.8983 0012516 333.3317 346.1231  2.13103236    14
COSMOS 2500 (755)       
1 40001C 14032A   23138.99979167  .00000000  00000-0  00000-0 0  1384
2 40001  65.7331 351.7341 0004726 183.7430 354.0378  2.13106203    10
COSMOS 2501 (702K)      
1 40315C 14075A   23138.99979167  .00000000  00000-0  00000-0 0  1389
2 40315  63.6457 229.4399 0019166 208.3471 138.4687  2.13101466    14
COSMOS 2514 (751)       
1 41330C 16008A   23138.99979167  .00000000  00000-0  00000-0 0  1385
2 41330  65.5310 351.3424 0008130 203.2036 158.3999  2.13102682    13
COSMOS 2522 (752)       
1 42939C 17055A   23138.99979167  .00000000  00000-0  00000-0 0  1384
2 42939  64.1061 230.3038 0008276 237.8563 244.6201  2.13101799    16
COSMOS 2527 (756)       
1 43508C 18053A   23138.99979167 -.00000000  00000-0  00000-0 0  1387
2 43508  65.0601 111.5837 0009494 244.5418 269.8456  2.13102602    18
COSMOS 2529 (757)       
1 43687C 18086A   23138.99979167  .00000000  00000-0  00000-0 0  1380
2 43687  64.3213 230.7103 0009715 261.2930 176.6703  2.13102050    15
COSMOS 2534 (758)       
1 44299C 19030A   23138.99979167  .00000000  00000-0  00000-0 0  1380
2 44299  64.3937 230.6265 0011990 283.1916 289.0899  2.13102091    11
COSMOS 2544 (759)       
1 44850C 19088A   23138.99979167 -.00000000  00000-0  00000-0 0  1387
2 44850  65.0459 111.4288 0014781 263.4506 294.1222  2.13102424    16
COSMOS 2545 (760)       
1 45358C 20018A   23138.99979167  .00000000  00000-0  00000-0 0  1385
2 45358  64.8710 351.6759 0006616 249.1868 157.4864  2.13102596    11
COSMOS 2547 (705K)      
1 46805C 20075A   23138.99979167  .00000000  00000-0  00000-0 0  1386
2 46805  64.6204 230.1503 0007433 240.9058  20.1850  2.13103136    13
COSMOS 2557 (706K)      
1 52984C 20075A   23138.99979167  .00000000  00000-0  00000-0 0  1381
2 52984  64.7835 353.8469 0010832 288.1036 208.9893  2.13102113    17
COSMOS 2559 (707K)      
1 54031C 22130A   23138.99979167  .00000000  00000-0  00000-0 0  1380
2 54031  64.7545 353.9783 0004589 217.7041 324.2888  2.13101328    19
COSMOS 2564 (761)       
1 54377C 22161A   23138.99979167  .00000000  00000-0  00000-0 0  1387
2 54377  64.7610 230.1839 0009593 219.7546 173.3680  2.13102077    10
